0 ELEKTRON 1 DEB
1 00750U 64006C   13281.24206259  .00006308  00000-0  91495-3 0   835
2 00750 060.7839 154.8935 1846152 212.4685 271.2662 11.47393139296720
0 ELEKTRON 1 DEB
1 00750U 64006C   13282.19810486  .00011212  00000-0  16112-2 0   846
2 00750 060.7827 152.9145 1846142 212.8592 260.3294 11.47414049296835
0 ELEKTRON 1 DEB
1 00750U 64006C   13283.73613630  .00007755  00000-0  11020-2 0   850
2 00750 060.7875 149.7301 1846028 213.4639 133.5409 11.47436311297014
0 ELEKTRON 1 DEB
1 00750U 64006C   13284.11213091  .00009997  00000-0  14389-2 0   851
2 00750 060.7831 148.9519 1845962 213.6363 246.6820 11.47444162297050
0 ELEKTRON 1 DEB
1 00750U 64006C   13286.62087126  .00008664  00000-0  12489-2 0   878
2 00750 060.7822 143.7581 1845820 214.6571 169.9505 11.47482248297343
0 ELEKTRON 1 DEB
1 00750U 64006C   13288.05087861  .00014571  00000-0  20884-2 0   886
2 00750 060.7817 140.7968 1845677 215.2398 317.2792 11.47506904297507
0 ELEKTRON 1 DEB
1 00750U 64006C   13289.17140287  .00012556  00000-0  18031-2 0   895
2 00750 060.7814 138.4764 1845497 215.6961 266.2478 11.47532309297638
0 ELEKTRON 1 DEB
1 00750U 64006C   13290.53267053  .00009770  00000-0  13844-2 0   901
2 00750 060.7801 135.6543 1845727 216.2273 129.8977 11.47559436297792
0 ELEKTRON 1 DEB
1 00750U 64006C   13290.63291311  .00012730  00000-0  18308-2 0   906
2 00750 060.7818 135.4491 1845164 216.2857 184.0035 11.47561886297805
0 ELEKTRON 1 DEB
1 00750U 64006C   13291.97043855  .00011475  00000-0  16524-2 0   916
2 00750 060.7820 132.6784 1844980 216.8289 309.7230 11.47596407297958
0 ELEKTRON 1 DEB
1 00750U 64006C   13293.01873882  .00012529  00000-0  18036-2 0   926
2 00750 060.7823 130.5073 1844810 217.2536 320.6602 11.47617036298072
0 ELEKTRON 1 DEB
1 00750U 64006C   13294.54931941  .00014278  00000-0  20533-2 0   935
2 00750 060.7827 127.3373 1844619 217.8751 164.2272 11.47649290298257
